ONEWEB-0509             
1 54127U 22138Q   23349.89303757  .00000035  00000+0  55731-4 0  9990
2 54127  87.9188 126.9591 0001412 107.1350 252.9938 13.19723970 56214
ONEWEB-0510             
1 54128U 22138R   23349.82279012  .00010025  00000+0  24615-1 0  9994
2 54128  87.9249  96.4334 0002248 125.9174 234.2168 13.20720370 58582
ONEWEB-0511             
1 54129U 22138S   23349.88988237  .00000107  00000+0  23579-3 0  9997
2 54129  87.9190 126.9610 0001203  94.8340 265.2930 13.19728061 56248
ONEWEB-0512             
1 54130U 22138T   23349.88198116  .00000059  00000+0  11588-3 0  9991
2 54130  87.9198 126.9641 0001146 120.0052 240.1195 13.19724121 56215
ONEWEB-0513             
1 54131U 22138U   23349.92858213 -.00000028  00000+0 -10160-3 0  9991
2 54131  87.9188 126.9551 0000787 110.2882 249.8336 13.19727491 56101
ONEWEB-0514             
1 54132U 22138V   23349.89777837  .00000009  00000+0 -10046-4 0  9992
2 54132  87.9191 126.9627 0001564 103.6645 256.4661 13.19725155 56231
ONEWEB-0515             
1 54133U 22138W   23349.81016856 -.00005241  00000+0 -12926-1 0  9992
2 54133  87.9200  96.4285 0002945 107.9206 252.2248 13.20792654 58606
ONEWEB-0516             
1 54134U 22138X   23349.94832075  .00000064  00000+0  12641-3 0  9998
2 54134  87.9197 126.9511 0001591 110.9320 249.1983 13.19727138 56242
